[{"OBJECT_NAME":"STARLINK-1443","OBJECT_ID":"2020-035D","EPOCH":"2026-03-09T23:27:23.665536","MEAN_MOTION":15.25229052,"ECCENTRICITY":0.00031812,"INCLINATION":53.14,"RA_OF_ASC_NODE":63.586,"ARG_OF_PERICENTER":47.856,"MEAN_ANOMALY":312.2708,"EPHEMERIS_TYPE":0,"CLASSIFICATION_TYPE":"U","NORAD_CAT_ID":45660,"ELEMENT_SET_NO":999,"REV_AT_EPOCH":31880,"BSTAR":0.001163622,"MEAN_MOTION_DOT":0.00029398,"MEAN_MOTION_DDOT":0},{"OBJECT_NAME":"OBJECT H","OBJECT_ID":"2026-023H","EPOCH":"2026-03-09T17:12:47.154816","MEAN_MOTION":15.23139098,"ECCENTRICITY":0.00239537,"INCLINATION":96.639,"RA_OF_ASC_NODE":144.1723,"ARG_OF_PERICENTER":117.6533,"MEAN_ANOMALY":242.7142,"EPHEMERIS_TYPE":0,"CLASSIFICATION_TYPE":"U","NORAD_CAT_ID":67681,"ELEMENT_SET_NO":999,"REV_AT_EPOCH":484,"BSTAR":0.00052586846,"MEAN_MOTION_DOT":0.00012465,"MEAN_MOTION_DDOT":0}]
